{
    "links": {
        "self": "http://www.neowsapp.com/rest/v1/neo/3512285?api_key=iIulBulltgU6a56xZRHN4H3l9WmuAYTsLGpBGhQ2"
    },
    "id": "3512285",
    "neo_reference_id": "3512285",
    "name": "(2010 FU)",
    "designation": "2010 FU",
    "nasa_jpl_url": "http://ssd.jpl.nasa.gov/sbdb.cgi?sstr=3512285",
    "absolute_magnitude_h": 24.7,
    "estimated_diameter": {
        "kilometers": {
            "estimated_diameter_min": 0.0305179233,
            "estimated_diameter_max": 0.0682401509
        },
        "meters": {
            "estimated_diameter_min": 30.5179232594,
            "estimated_diameter_max": 68.2401509401
        },
        "miles": {
            "estimated_diameter_min": 0.0189629525,
            "estimated_diameter_max": 0.0424024508
        },
        "feet": {
            "estimated_diameter_min": 100.1244233463,
            "estimated_diameter_max": 223.8850168104
        }
    },
    "is_potentially_hazardous_asteroid": false,
    "close_approach_data": [
        {
            "close_approach_date": "2010-03-21",
            "close_approach_date_full": "2010-Mar-21 04:37",
            "epoch_date_close_approach": 1269146220000,
            "relative_velocity": {
                "kilometers_per_second": "7.9507359552",
                "kilometers_per_hour": "28622.6494388731",
                "miles_per_hour": "17785.001258282"
            },
            "miss_distance": {
                "astronomical": "0.0376182389",
                "lunar": "14.6334949321",
                "kilometers": "5627608.412591143",
                "miles": "3496833.7172500534"
            },
            "orbiting_body": "Earth"
        },
        {
            "close_approach_date": "2141-04-21",
            "close_approach_date_full": "2141-Apr-21 00:17",
            "epoch_date_close_approach": 5405789820000,
            "relative_velocity": {
                "kilometers_per_second": "14.4222493509",
                "kilometers_per_hour": "51920.0976631738",
                "miles_per_hour": "32261.1295729871"
            },
            "miss_distance": {
                "astronomical": "0.2854879051",
                "lunar": "111.0547950839",
                "kilometers": "42708382.513722137",
                "miles": "26537758.3218220106"
            },
            "orbiting_body": "Earth"
        }
    ],
    "orbital_data": {
        "orbit_id": "16",
        "orbit_determination_date": "2017-04-06 08:58:05",
        "first_observation_date": "2010-03-18",
        "last_observation_date": "2010-03-27",
        "data_arc_in_days": 9,
        "observations_used": 58,
        "orbit_uncertainty": "8",
        "minimum_orbit_intersection": ".0361996",
        "jupiter_tisserand_invariant": "4.051",
        "epoch_osculation": "2455277.5",
        "eccentricity": ".4094199677107895",
        "semi_major_axis": "1.723012806969194",
        "inclination": "10.80042593028179",
        "ascending_node_longitude": "5.645812824161452",
        "orbital_period": "826.0972665810814",
        "perihelion_distance": "1.01757695917459",
        "perihelion_argument": "159.3265341592627",
        "aphelion_distance": "2.428448654763799",
        "perihelion_time": "2455262.763084290465",
        "mean_anomaly": "6.422112588980327",
        "mean_motion": ".435784034838791",
        "equinox": "J2000",
        "orbit_class": {
            "orbit_class_type": "AMO",
            "orbit_class_description": "Near-Earth asteroid orbits similar to that of 1221 Amor",
            "orbit_class_range": "1.017 AU < q (perihelion) < 1.3 AU"
        }
    },
    "is_sentry_object": false
}